ORBCOMM FM115 [+]       
1 41186U 15081H   24114.33018192  .00002850  00000+0  61547-3 0  9994
2 41186  46.9974 233.5236 0001542 283.1182  76.9532 14.60601291446356
ORBCOMM FM117 [+]       
1 41188U 15081K   24114.91178370  .00002788  00000+0  65778-3 0  9995
2 41188  46.9991 283.4456 0003554 204.6044 155.4671 14.56513881445689
ORBCOMM FM116 [+]       
1 41189U 15081L   24114.83249685  .00003368  00000+0  78686-3 0  9992
2 41189  47.0028  13.6365 0002531 291.8016  68.2599 14.56510130444487
